[{"OBJECT_NAME":"STARLINK-30565","OBJECT_ID":"2023-156G","EPOCH":"2026-03-09T10:31:28.903008","MEAN_MOTION":15.30193119,"ECCENTRICITY":0.00012538,"INCLINATION":53.1608,"RA_OF_ASC_NODE":79.6446,"ARG_OF_PERICENTER":83.6454,"MEAN_ANOMALY":276.469,"EPHEMERIS_TYPE":0,"CLASSIFICATION_TYPE":"U","NORAD_CAT_ID":58034,"ELEMENT_SET_NO":999,"REV_AT_EPOCH":13627,"BSTAR":2.9031876e-5,"MEAN_MOTION_DOT":5.01e-6,"MEAN_MOTION_DDOT":0},{"OBJECT_NAME":"IRIDIUM 45","OBJECT_ID":"1997-082A","EPOCH":"2026-03-09T19:43:04.689120","MEAN_MOTION":15.36676082,"ECCENTRICITY":0.00899413,"INCLINATION":86.3479,"RA_OF_ASC_NODE":277.5722,"ARG_OF_PERICENTER":47.6509,"MEAN_ANOMALY":313.2314,"EPHEMERIS_TYPE":0,"CLASSIFICATION_TYPE":"U","NORAD_CAT_ID":25104,"ELEMENT_SET_NO":999,"REV_AT_EPOCH":49262,"BSTAR":0.00064625537,"MEAN_MOTION_DOT":0.00026618,"MEAN_MOTION_DDOT":0}]
